STARLINK-1963_new
1 17564C 21009S   21326.13160835  .00009121  00000-0  61114-3 0  3262
2 17564  53.0539 213.1517 0002119  72.4493 331.5224 15.06386237    17
STARLINK-1963_old
1 27564C 21009S   21325.16615012 -.00011295  00000-0 -75684-3 0  3259
2 27564  53.0544 217.4856 0002142  70.6162 134.7475 15.06406045    16
